TIANMU-1 10             
1 57402U 23101D   26095.85524191  .00008741  00000+0  30806-3 0  9991
2 57402  97.2690 148.4025 0006069  62.3910 297.7946 15.29496300150581
FENGYUN 3F              
1 57490U 23111A   26095.81742978  .00000124  00000+0  78639-4 0  9994
2 57490  98.6876 167.1613 0000795  87.9898 272.1369 14.19926379138593
ARKTIKA-M 2             
1 58584U 23198A   26091.99129222  .00000155  00000+0  00000+0 0  9996
2 58584  63.2180 162.8290 6883118 267.6735  18.8443  2.00607379 16796
TIANMU-1 11             
1 58645U 23205A   26095.82101498  .00007357  00000+0  28642-3 0  9991
2 58645  97.3509 118.5337 0007155 256.3065 103.7377 15.26265720126481
TIANMU-1 12             
1 58646U 23205B   26095.85465306  .00007692  00000+0  29992-3 0  9997
2 58646  97.3498 118.3387 0005728 233.1276 126.9438 15.26205870126477
TIANMU-1 13             
1 58647U 23205C   26095.81908230  .00007776  00000+0  30266-3 0  9991
2 58647  97.3525 118.5545 0006505 211.7032 148.3816 15.26255563126464
TIANMU-1 14             
1 58648U 23205D   26095.80410189  .00008053  00000+0  31355-3 0  9991
2 58648  97.3461 117.7842 0007105 217.9102 142.1637 15.26229425126469
TIANMU-1 19             
1 58660U 23208A   26095.86938808  .00012332  00000+0  42107-3 0  9999
2 58660  97.4417 211.9003 0004730 196.9173 163.1911 15.30449623126261
TIANMU-1 20             
1 58661U 23208B   26095.76733378  .00012012  00000+0  39537-3 0  9992
2 58661  97.4358 212.3590 0006599 211.5441 148.5406 15.31633398126338
TIANMU-1 21             
1 58662U 23208C   26095.86001579  .00014327  00000+0  44083-3 0  9998
2 58662  97.4415 214.8321 0006681 205.6370 154.4542 15.33750107126471
TIANMU-1 22             
1 58663U 23208D   26095.76339501  .00010813  00000+0  37461-3 0  9995
2 58663  97.4412 211.7866 0002893 218.2206 141.8830 15.30016858126259
TIANMU-1 15             
1 58700U 24004A   26095.86715764  .00008489  00000+0  33025-3 0  9990
2 58700  97.4678 282.0777 0005843 236.6326 123.4354 15.26255115124747
TIANMU-1 16             
1 58701U 24004B   26095.85000770  .00008594  00000+0  33399-3 0  9995
2 58701  97.4622 281.3647 0004236 237.8954 122.1873 15.26293022124741
TIANMU-1 17             
1 58702U 24004C   26095.83202296  .00008223  00000+0  32114-3 0  9994
2 58702  97.4651 281.8121 0004057 244.7623 115.3195 15.26144025124735
TIANMU-1 18             
1 58703U 24004D   26095.81792355  .00007989  00000+0  31104-3 0  9999
2 58703  97.4669 282.0144 0002865 233.6085 126.4889 15.26261395124730
INSAT-3DS               
1 58990U 24033A   26095.83250713 -.00000154  00000+0  00000+0 0  9993
2 58990   0.0433  92.2451 0002192 290.7057 192.9543  1.00271622 46341
METEOR-M2 4             
1 59051U 24039A   26095.87167196  .00000054  00000+0  44007-4 0  9992
2 59051  98.6950  56.1049 0007598  27.3270 332.8307 14.22421687108983
