[{"OBJECT_NAME":"TIANMU-1 10","OBJECT_ID":"2023-101D","EPOCH":"2026-04-05T20:31:32.901024","MEAN_MOTION":15.294963,"ECCENTRICITY":0.0006069,"INCLINATION":97.269,"RA_OF_ASC_NODE":148.4025,"ARG_OF_PERICENTER":62.391,"MEAN_ANOMALY":297.7946,"EPHEMERIS_TYPE":0,"CLASSIFICATION_TYPE":"U","NORAD_CAT_ID":57402,"ELEMENT_SET_NO":999,"REV_AT_EPOCH":15058,"BSTAR":0.00030806,"MEAN_MOTION_DOT":8.741e-5,"MEAN_MOTION_DDOT":0},{"OBJECT_NAME":"FENGYUN 3F","OBJECT_ID":"2023-111A","EPOCH":"2026-04-05T19:37:05.932992","MEAN_MOTION":14.19926379,"ECCENTRICITY":7.95e-5,"INCLINATION":98.6876,"RA_OF_ASC_NODE":167.1613,"ARG_OF_PERICENTER":87.9898,"MEAN_ANOMALY":272.1369,"EPHEMERIS_TYPE":0,"CLASSIFICATION_TYPE":"U","NORAD_CAT_ID":57490,"ELEMENT_SET_NO":999,"REV_AT_EPOCH":13859,"BSTAR":7.8639e-5,"MEAN_MOTION_DOT":1.24e-6,"MEAN_MOTION_DDOT":0},{"OBJECT_NAME":"ARKTIKA-M 2","OBJECT_ID":"2023-198A","EPOCH":"2026-04-01T23:47:27.647808","MEAN_MOTION":2.00607379,"ECCENTRICITY":0.6883118,"INCLINATION":63.218,"RA_OF_ASC_NODE":162.829,"ARG_OF_PERICENTER":267.6735,"MEAN_ANOMALY":18.8443,"EPHEMERIS_TYPE":0,"CLASSIFICATION_TYPE":"U","NORAD_CAT_ID":58584,"ELEMENT_SET_NO":999,"REV_AT_EPOCH":1679,"BSTAR":0,"MEAN_MOTION_DOT":1.55e-6,"MEAN_MOTION_DDOT":0},{"OBJECT_NAME":"TIANMU-1 11","OBJECT_ID":"2023-205A","EPOCH":"2026-04-05T19:42:15.694272","MEAN_MOTION":15.2626572,"ECCENTRICITY":0.0007155,"INCLINATION":97.3509,"RA_OF_ASC_NODE":118.5337,"ARG_OF_PERICENTER":256.3065,"MEAN_ANOMALY":103.7377,"EPHEMERIS_TYPE":0,"CLASSIFICATION_TYPE":"U","NORAD_CAT_ID":58645,"ELEMENT_SET_NO":999,"REV_AT_EPOCH":12648,"BSTAR":0.00028642,"MEAN_MOTION_DOT":7.357e-5,"MEAN_MOTION_DDOT":0},{"OBJECT_NAME":"TIANMU-1 12","OBJECT_ID":"2023-205B","EPOCH":"2026-04-05T20:30:42.024384","MEAN_MOTION":15.2620587,"ECCENTRICITY":0.0005728,"INCLINATION":97.3498,"RA_OF_ASC_NODE":118.3387,"ARG_OF_PERICENTER":233.1276,"MEAN_ANOMALY":126.9438,"EPHEMERIS_TYPE":0,"CLASSIFICATION_TYPE":"U","NORAD_CAT_ID":58646,"ELEMENT_SET_NO":999,"REV_AT_EPOCH":12647,"BSTAR":0.00029992,"MEAN_MOTION_DOT":7.692e-5,"MEAN_MOTION_DDOT":0},{"OBJECT_NAME":"TIANMU-1 13","OBJECT_ID":"2023-205C","EPOCH":"2026-04-05T19:39:28.710720","MEAN_MOTION":15.26255563,"ECCENTRICITY":0.0006505,"INCLINATION":97.3525,"RA_OF_ASC_NODE":118.5545,"ARG_OF_PERICENTER":211.7032,"MEAN_ANOMALY":148.3816,"EPHEMERIS_TYPE":0,"CLASSIFICATION_TYPE":"U","NORAD_CAT_ID":58647,"ELEMENT_SET_NO":999,"REV_AT_EPOCH":12646,"BSTAR":0.00030266,"MEAN_MOTION_DOT":7.776e-5,"MEAN_MOTION_DDOT":0},{"OBJECT_NAME":"TIANMU-1 14","OBJECT_ID":"2023-205D","EPOCH":"2026-04-05T19:17:54.403296","MEAN_MOTION":15.26229425,"ECCENTRICITY":0.0007105,"INCLINATION":97.3461,"RA_OF_ASC_NODE":117.7842,"ARG_OF_PERICENTER":217.9102,"MEAN_ANOMALY":142.1637,"EPHEMERIS_TYPE":0,"CLASSIFICATION_TYPE":"U","NORAD_CAT_ID":58648,"ELEMENT_SET_NO":999,"REV_AT_EPOCH":12646,"BSTAR":0.00031355,"MEAN_MOTION_DOT":8.053e-5,"MEAN_MOTION_DDOT":0},{"OBJECT_NAME":"TIANMU-1 19","OBJECT_ID":"2023-208A","EPOCH":"2026-04-05T20:51:55.130112","MEAN_MOTION":15.30449623,"ECCENTRICITY":0.000473,"INCLINATION":97.4417,"RA_OF_ASC_NODE":211.9003,"ARG_OF_PERICENTER":196.9173,"MEAN_ANOMALY":163.1911,"EPHEMERIS_TYPE":0,"CLASSIFICATION_TYPE":"U","NORAD_CAT_ID":58660,"ELEMENT_SET_NO":999,"REV_AT_EPOCH":12626,"BSTAR":0.00042107,"MEAN_MOTION_DOT":0.00012332,"MEAN_MOTION_DDOT":0},{"OBJECT_NAME":"TIANMU-1 20","OBJECT_ID":"2023-208B","EPOCH":"2026-04-05T18:24:57.638592","MEAN_MOTION":15.31633398,"ECCENTRICITY":0.0006599,"INCLINATION":97.4358,"RA_OF_ASC_NODE":212.359,"ARG_OF_PERICENTER":211.5441,"MEAN_ANOMALY":148.5406,"EPHEMERIS_TYPE":0,"CLASSIFICATION_TYPE":"U","NORAD_CAT_ID":58661,"ELEMENT_SET_NO":999,"REV_AT_EPOCH":12633,"BSTAR":0.00039537,"MEAN_MOTION_DOT":0.00012012,"MEAN_MOTION_DDOT":0},{"OBJECT_NAME":"TIANMU-1 21","OBJECT_ID":"2023-208C","EPOCH":"2026-04-05T20:38:25.364256","MEAN_MOTION":15.33750107,"ECCENTRICITY":0.0006681,"INCLINATION":97.4415,"RA_OF_ASC_NODE":214.8321,"ARG_OF_PERICENTER":205.637,"MEAN_ANOMALY":154.4542,"EPHEMERIS_TYPE":0,"CLASSIFICATION_TYPE":"U","NORAD_CAT_ID":58662,"ELEMENT_SET_NO":999,"REV_AT_EPOCH":12647,"BSTAR":0.00044083,"MEAN_MOTION_DOT":0.00014327,"MEAN_MOTION_DDOT":0},{"OBJECT_NAME":"TIANMU-1 22","OBJECT_ID":"2023-208D","EPOCH":"2026-04-05T18:19:17.328864","MEAN_MOTION":15.30016858,"ECCENTRICITY":0.0002893,"INCLINATION":97.4412,"RA_OF_ASC_NODE":211.7866,"ARG_OF_PERICENTER":218.2206,"MEAN_ANOMALY":141.883,"EPHEMERIS_TYPE":0,"CLASSIFICATION_TYPE":"U","NORAD_CAT_ID":58663,"ELEMENT_SET_NO":999,"REV_AT_EPOCH":12625,"BSTAR":0.00037461,"MEAN_MOTION_DOT":0.00010813,"MEAN_MOTION_DDOT":0},{"OBJECT_NAME":"TIANMU-1 15","OBJECT_ID":"2024-004A","EPOCH":"2026-04-05T20:48:42.420096","MEAN_MOTION":15.26255115,"ECCENTRICITY":0.0005843,"INCLINATION":97.4678,"RA_OF_ASC_NODE":282.0777,"ARG_OF_PERICENTER":236.6326,"MEAN_ANOMALY":123.4354,"EPHEMERIS_TYPE":0,"CLASSIFICATION_TYPE":"U","NORAD_CAT_ID":58700,"ELEMENT_SET_NO":999,"REV_AT_EPOCH":12474,"BSTAR":0.00033025,"MEAN_MOTION_DOT":8.489e-5,"MEAN_MOTION_DDOT":0},{"OBJECT_NAME":"TIANMU-1 16","OBJECT_ID":"2024-004B","EPOCH":"2026-04-05T20:24:00.665280","MEAN_MOTION":15.26293022,"ECCENTRICITY":0.0004236,"INCLINATION":97.4622,"RA_OF_ASC_NODE":281.3647,"ARG_OF_PERICENTER":237.8954,"MEAN_ANOMALY":122.1873,"EPHEMERIS_TYPE":0,"CLASSIFICATION_TYPE":"U","NORAD_CAT_ID":58701,"ELEMENT_SET_NO":999,"REV_AT_EPOCH":12474,"BSTAR":0.00033399,"MEAN_MOTION_DOT":8.594e-5,"MEAN_MOTION_DDOT":0},{"OBJECT_NAME":"TIANMU-1 17","OBJECT_ID":"2024-004C","EPOCH":"2026-04-05T19:58:06.783744","MEAN_MOTION":15.26144025,"ECCENTRICITY":0.0004057,"INCLINATION":97.4651,"RA_OF_ASC_NODE":281.8121,"ARG_OF_PERICENTER":244.7623,"MEAN_ANOMALY":115.3195,"EPHEMERIS_TYPE":0,"CLASSIFICATION_TYPE":"U","NORAD_CAT_ID":58702,"ELEMENT_SET_NO":999,"REV_AT_EPOCH":12473,"BSTAR":0.00032114,"MEAN_MOTION_DOT":8.223e-5,"MEAN_MOTION_DDOT":0},{"OBJECT_NAME":"TIANMU-1 18","OBJECT_ID":"2024-004D","EPOCH":"2026-04-05T19:37:48.594720","MEAN_MOTION":15.26261395,"ECCENTRICITY":0.0002865,"INCLINATION":97.4669,"RA_OF_ASC_NODE":282.0144,"ARG_OF_PERICENTER":233.6085,"MEAN_ANOMALY":126.4889,"EPHEMERIS_TYPE":0,"CLASSIFICATION_TYPE":"U","NORAD_CAT_ID":58703,"ELEMENT_SET_NO":999,"REV_AT_EPOCH":12473,"BSTAR":0.00031104,"MEAN_MOTION_DOT":7.989e-5,"MEAN_MOTION_DDOT":0},{"OBJECT_NAME":"INSAT-3DS","OBJECT_ID":"2024-033A","EPOCH":"2026-04-05T19:58:48.616032","MEAN_MOTION":1.00271622,"ECCENTRICITY":0.0002192,"INCLINATION":0.0433,"RA_OF_ASC_NODE":92.2451,"ARG_OF_PERICENTER":290.7057,"MEAN_ANOMALY":192.9543,"EPHEMERIS_TYPE":0,"CLASSIFICATION_TYPE":"U","NORAD_CAT_ID":58990,"ELEMENT_SET_NO":999,"REV_AT_EPOCH":4634,"BSTAR":0,"MEAN_MOTION_DOT":-1.54e-6,"MEAN_MOTION_DDOT":0},{"OBJECT_NAME":"METEOR-M2 4","OBJECT_ID":"2024-039A","EPOCH":"2026-04-05T20:55:12.457344","MEAN_MOTION":14.22421687,"ECCENTRICITY":0.0007598,"INCLINATION":98.695,"RA_OF_ASC_NODE":56.1049,"ARG_OF_PERICENTER":27.327,"MEAN_ANOMALY":332.8307,"EPHEMERIS_TYPE":0,"CLASSIFICATION_TYPE":"U","NORAD_CAT_ID":59051,"ELEMENT_SET_NO":999,"REV_AT_EPOCH":10898,"BSTAR":4.4007e-5,"MEAN_MOTION_DOT":5.4e-7,"MEAN_MOTION_DDOT":0}]
